{
 "generated_at": "2026-06-14T08:41:33Z",
 "sources": [
  {
   "name": "CelesTrak",
   "url": "https://celestrak.org/NORAD/elements/",
   "license": "frei verfügbar; Attribution. Ursprünglich USSPACECOM/Space-Track."
  },
  {
   "name": "GCAT (J. McDowell, planet4589.org)",
   "url": "https://planet4589.org/space/gcat/",
   "license": "CC-BY 4.0"
  }
 ],
 "satellites": [
  {
   "norad": 43226,
   "name": "GOES 17",
   "intl": "2018-022A",
   "group": "weather",
   "gcat": {
    "class": "C",
    "category": "MET",
    "owner": "NOAA",
    "state": "US"
   },
   "omm": {
    "OBJECT_NAME": "GOES 17",
    "OBJECT_ID": "2018-022A",
    "EPOCH": "2026-06-13T21:16:54.514848",
    "MEAN_MOTION": 1.00270214,
    "ECCENTRICITY": 0.00004044,
    "INCLINATION": 0.9286,
    "RA_OF_ASC_NODE": 85.7676,
    "ARG_OF_PERICENTER": 32.8739,
    "MEAN_ANOMALY": 13.2853,
    "EPHEMERIS_TYPE": 0,
    "CLASSIFICATION_TYPE": "U",
    "NORAD_CAT_ID": 43226,
    "ELEMENT_SET_NO": 999,
    "REV_AT_EPOCH": 3039,
    "BSTAR": 0,
    "MEAN_MOTION_DOT": -0.00000173,
    "MEAN_MOTION_DDOT": 0
   }
  },
  {
   "norad": 51850,
   "name": "GOES 18",
   "intl": "2022-021A",
   "group": "weather",
   "gcat": {
    "class": "C",
    "category": "MET",
    "owner": "NOAA",
    "state": "US"
   },
   "omm": {
    "OBJECT_NAME": "GOES 18",
    "OBJECT_ID": "2022-021A",
    "EPOCH": "2026-06-13T15:55:27.842016",
    "MEAN_MOTION": 1.00271975,
    "ECCENTRICITY": 0.00004688,
    "INCLINATION": 0.0052,
    "RA_OF_ASC_NODE": 236.9985,
    "ARG_OF_PERICENTER": 287.1488,
    "MEAN_ANOMALY": 199.6934,
    "EPHEMERIS_TYPE": 0,
    "CLASSIFICATION_TYPE": "U",
    "NORAD_CAT_ID": 51850,
    "ELEMENT_SET_NO": 999,
    "REV_AT_EPOCH": 655,
    "BSTAR": 0,
    "MEAN_MOTION_DOT": 0.00000107,
    "MEAN_MOTION_DDOT": 0
   }
  },
  {
   "norad": 60133,
   "name": "GOES 19",
   "intl": "2024-119A",
   "group": "weather",
   "gcat": {
    "class": "C",
    "category": "MET",
    "owner": "NOAA",
    "state": "US"
   },
   "omm": {
    "OBJECT_NAME": "GOES 19",
    "OBJECT_ID": "2024-119A",
    "EPOCH": "2026-06-13T21:21:01.619712",
    "MEAN_MOTION": 1.00269959,
    "ECCENTRICITY": 0.00004935,
    "INCLINATION": 0.0081,
    "RA_OF_ASC_NODE": 92.0551,
    "ARG_OF_PERICENTER": 82.3999,
    "MEAN_ANOMALY": 332.8067,
    "EPHEMERIS_TYPE": 0,
    "CLASSIFICATION_TYPE": "U",
    "NORAD_CAT_ID": 60133,
    "ELEMENT_SET_NO": 999,
    "REV_AT_EPOCH": 693,
    "BSTAR": 0,
    "MEAN_MOTION_DOT": -0.00000238,
    "MEAN_MOTION_DDOT": 0
   }
  },
  {
   "norad": 41875,
   "name": "GOKTURK 1A",
   "intl": "2016-073A",
   "group": "resource",
   "gcat": {
    "class": "D",
    "category": "IMG",
    "owner": "MSBTR",
    "state": "TR"
   },
   "omm": {
    "OBJECT_NAME": "GOKTURK 1A",
    "OBJECT_ID": "2016-073A",
    "EPOCH": "2026-06-13T23:05:46.517280",
    "MEAN_MOTION": 14.62773381,
    "ECCENTRICITY": 0.00014483,
    "INCLINATION": 98.1263,
    "RA_OF_ASC_NODE": 59.6877,
    "ARG_OF_PERICENTER": 76.9184,
    "MEAN_ANOMALY": 283.2179,
    "EPHEMERIS_TYPE": 0,
    "CLASSIFICATION_TYPE": "U",
    "NORAD_CAT_ID": 41875,
    "ELEMENT_SET_NO": 999,
    "REV_AT_EPOCH": 50835,
    "BSTAR": 0.0001334298,
    "MEAN_MOTION_DOT": 0.00000634,
    "MEAN_MOTION_DDOT": 0
   }
  },
  {
   "norad": 39030,
   "name": "GOKTURK 2",
   "intl": "2012-073A",
   "group": "resource",
   "gcat": {
    "class": "D",
    "category": "IMG",
    "owner": "MSBTR",
    "state": "TR"
   },
   "omm": {
    "OBJECT_NAME": "GOKTURK 2",
    "OBJECT_ID": "2012-073A",
    "EPOCH": "2026-06-13T21:26:45.279168",
    "MEAN_MOTION": 14.755394,
    "ECCENTRICITY": 0.00017314,
    "INCLINATION": 97.6823,
    "RA_OF_ASC_NODE": 2.4908,
    "ARG_OF_PERICENTER": 58.1621,
    "MEAN_ANOMALY": 301.9758,
    "EPHEMERIS_TYPE": 0,
    "CLASSIFICATION_TYPE": "U",
    "NORAD_CAT_ID": 39030,
    "ELEMENT_SET_NO": 999,
    "REV_AT_EPOCH": 72402,
    "BSTAR": 0.000059065464,
    "MEAN_MOTION_DOT": 0.00000355,
    "MEAN_MOTION_DDOT": 0
   }
  },
  {
   "norad": 33492,
   "name": "GOSAT (IBUKI)",
   "intl": "2009-002A",
   "group": "resource",
   "gcat": {
    "class": "C",
    "category": "EOSCI",
    "owner": "JAXA",
    "state": "J"
   },
   "omm": {
    "OBJECT_NAME": "GOSAT (IBUKI)",
    "OBJECT_ID": "2009-002A",
    "EPOCH": "2026-06-13T20:46:29.034048",
    "MEAN_MOTION": 14.67539561,
    "ECCENTRICITY": 0.00014487,
    "INCLINATION": 98.0888,
    "RA_OF_ASC_NODE": 275.9881,
    "ARG_OF_PERICENTER": 81.2358,
    "MEAN_ANOMALY": 278.9011,
    "EPHEMERIS_TYPE": 0,
    "CLASSIFICATION_TYPE": "U",
    "NORAD_CAT_ID": 33492,
    "ELEMENT_SET_NO": 999,
    "REV_AT_EPOCH": 93097,
    "BSTAR": 0.00019635698,
    "MEAN_MOTION_DOT": 0.00001065,
    "MEAN_MOTION_DDOT": 0
   }
  },
  {
   "norad": 64694,
   "name": "GOSAT-GW (IBUKI GW)",
   "intl": "2025-141A",
   "group": "resource",
   "gcat": {
    "class": "C",
    "category": "EOSCI",
    "owner": "JAXA",
    "state": "J"
   },
   "omm": {
    "OBJECT_NAME": "GOSAT-GW (IBUKI GW)",
    "OBJECT_ID": "2025-141A",
    "EPOCH": "2026-06-13T23:39:17.441856",
    "MEAN_MOTION": 14.67551487,
    "ECCENTRICITY": 0.00014396,
    "INCLINATION": 98.0567,
    "RA_OF_ASC_NODE": 102.3545,
    "ARG_OF_PERICENTER": 85.4382,
    "MEAN_ANOMALY": 274.6987,
    "EPHEMERIS_TYPE": 0,
    "CLASSIFICATION_TYPE": "U",
    "NORAD_CAT_ID": 64694,
    "ELEMENT_SET_NO": 999,
    "REV_AT_EPOCH": 5137,
    "BSTAR": 0.00010946428,
    "MEAN_MOTION_DOT": 0.00000573,
    "MEAN_MOTION_DDOT": 0
   }
  },
  {
   "norad": 39574,
   "name": "GPM-CORE",
   "intl": "2014-009C",
   "group": "resource",
   "gcat": {
    "class": "C",
    "category": "EOSCI",
    "owner": "GSFC",
    "state": "US"
   },
   "omm": {
    "OBJECT_NAME": "GPM-CORE",
    "OBJECT_ID": "2014-009C",
    "EPOCH": "2026-06-13T21:46:24.132864",
    "MEAN_MOTION": 15.44505846,
    "ECCENTRICITY": 0.00119884,
    "INCLINATION": 64.9721,
    "RA_OF_ASC_NODE": 319.1111,
    "ARG_OF_PERICENTER": 250.3832,
    "MEAN_ANOMALY": 109.6014,
    "EPHEMERIS_TYPE": 0,
    "CLASSIFICATION_TYPE": "U",
    "NORAD_CAT_ID": 39574,
    "ELEMENT_SET_NO": 999,
    "REV_AT_EPOCH": 69730,
    "BSTAR": 0.00026257395,
    "MEAN_MOTION_DOT": 0.00012039,
    "MEAN_MOTION_DDOT": 0
   }
  },
  {
   "norad": 31113,
   "name": "HAIYANG-1B",
   "intl": "2007-010A",
   "group": "resource",
   "gcat": {
    "class": null,
    "category": null,
    "owner": null,
    "state": null
   },
   "omm": {
    "OBJECT_NAME": "HAIYANG-1B",
    "OBJECT_ID": "2007-010A",
    "EPOCH": "2026-06-13T22:17:00.383424",
    "MEAN_MOTION": 14.31026164,
    "ECCENTRICITY": 0.00128101,
    "INCLINATION": 98.3494,
    "RA_OF_ASC_NODE": 146.9001,
    "ARG_OF_PERICENTER": 206.4182,
    "MEAN_ANOMALY": 153.6349,
    "EPHEMERIS_TYPE": 0,
    "CLASSIFICATION_TYPE": "U",
    "NORAD_CAT_ID": 31113,
    "ELEMENT_SET_NO": 999,
    "REV_AT_EPOCH": 17,
    "BSTAR": 0.000045292422,
    "MEAN_MOTION_DOT": 7.8e-7,
    "MEAN_MOTION_DDOT": 0
   }
  },
  {
   "norad": 37781,
   "name": "HAIYANG-2A",
   "intl": "2011-043A",
   "group": "resource",
   "gcat": {
    "class": null,
    "category": null,
    "owner": null,
    "state": null
   },
   "omm": {
    "OBJECT_NAME": "HAIYANG-2A",
    "OBJECT_ID": "2011-043A",
    "EPOCH": "2026-06-13T23:32:33.050976",
    "MEAN_MOTION": 13.74458932,
    "ECCENTRICITY": 0.00062025,
    "INCLINATION": 99.3391,
    "RA_OF_ASC_NODE": 167.7275,
    "ARG_OF_PERICENTER": 96.8293,
    "MEAN_ANOMALY": 263.3562,
    "EPHEMERIS_TYPE": 0,
    "CLASSIFICATION_TYPE": "U",
    "NORAD_CAT_ID": 37781,
    "ELEMENT_SET_NO": 999,
    "REV_AT_EPOCH": 74621,
    "BSTAR": 0.000028164301,
    "MEAN_MOTION_DOT": -1.7e-7,
    "MEAN_MOTION_DDOT": 0
   }
  }
 ]
}
